ONEWEB-0180             
1 48213U 21031D   26196.16655566  .00000239  00000+0  61049-3 0  9995
2 48213  87.8979 284.1241 0002446  99.0115 261.1292 13.14502868251897
ONEWEB-0218             
1 48214U 21031E   26196.18874733 -.00000121  00000+0 -36167-3 0  9992
2 48214  87.8980 284.1187 0002833 110.0454 250.0981 13.14503770252053
ONEWEB-0209             
1 48215U 21031F   26196.17765603 -.00000004  00000+0 -45293-4 0  9998
2 48215  87.8972 284.1352 0002235  96.6740 263.4644 13.14503730252052
ONEWEB-0198             
1 48216U 21031G   26195.70522965  .00000208  00000+0  52741-3 0  9998
2 48216  87.8962 284.2266 0002479 101.0538 259.0870 13.14502293252104
ONEWEB-0189             
1 48217U 21031H   26196.17448240  .00000103  00000+0  24366-3 0  9990
2 48217  87.8971 284.1224 0002366 100.6486 259.4910 13.14502227251903
ONEWEB-0196             
1 48218U 21031J   26196.22840010  .00000217  00000+0  55183-3 0  9995
2 48218  87.8968 284.1202 0002181  98.6294 261.5083 13.14502501251915
ONEWEB-0183             
1 48219U 21031K   26195.74631489 -.00000121  00000+0 -36128-3 0  9994
2 48219  87.8966 284.2138 0001971  94.5793 265.5562 13.14502398251941
ONEWEB-0185             
1 48220U 21031L   26196.22917455  .00000302  00000+0  78115-3 0  9991
2 48220  87.8977 284.1131 0002205  89.4920 270.6462 13.14504198251938
ONEWEB-0187             
1 48221U 21031M   26196.20922294 -.00000014  00000+0 -72514-4 0  9997
2 48221  87.8967 284.1309 0002181  96.7698 263.3680 13.14503340251941
ONEWEB-0192             
1 48222U 21031N   26196.17923762  .00000016  00000+0  87184-5 0  9995
2 48222  87.8969 284.1268 0002122 100.9771 259.1597 13.14503085251859
ONEWEB-0219             
1 48223U 21031P   26195.77802165  .00000266  00000+0  68184-3 0  9998
2 48223  87.8976 284.2002 0002201  94.5179 265.6202 13.14503432252002
ONEWEB-0202             
1 48224U 21031Q   26196.21571625  .00000068  00000+0  15019-3 0  9992
2 48224  87.8970 284.1251 0002654 107.3276 252.8145 13.14502789252047
ONEWEB-0204             
1 48225U 21031R   26196.17368120  .00000341  00000+0  88402-3 0  9992
2 48225  87.8971 284.1280 0001803  88.2583 271.8753 13.14501619251938
ONEWEB-0205             
1 48226U 21031S   26196.22522427  .00000218  00000+0  55249-3 0  9997
2 48226  87.8975 284.1128 0002301  95.8176 264.3216 13.14502889251953
ONEWEB-0206             
1 48227U 21031T   26196.19825949 -.00000163  00000+0 -47534-3 0  9998
2 48227  87.8971 284.1182 0001895 102.0329 258.1013 13.14502219251906
ONEWEB-0182             
1 48228U 21031U   26195.73678780 -.00000169  00000+0 -49169-3 0  9999
2 48228  87.8968 284.2166 0001905  94.3303 265.8044 13.14504131252054
ONEWEB-0186             
1 48229U 21031V   26196.20460459 -.00000104  00000+0 -31535-3 0  9992
2 48229  87.8976 284.1169 0002128  97.7144 262.4227 13.14503374252069
ONEWEB-0181             
1 48230U 21031W   26196.18239178 -.00000048  00000+0 -16316-3 0  9990
2 48230  87.8964 284.1456 0002218  98.9560 261.1820 13.14501717251919
ONEWEB-0188             
1 48231U 21031X   26196.22046354  .00000116  00000+0  27918-3 0  9992
2 48231  87.8960 284.1377 0002063  97.9552 262.1812 13.14502254251825
ONEWEB-0220             
1 48232U 21031Y   26196.18399762 -.00000064  00000+0 -20654-3 0  9996
2 48232  87.8977 284.1220 0002214  92.7800 267.3583 13.14494088252084
ONEWEB-0165             
1 48233U 21031Z   26196.21253778  .00000010  00000+0 -70574-5 0  9995
2 48233  87.8967 284.1275 0002442 102.0247 258.1157 13.14504055252044
ONEWEB-0199             
1 48234U 21031AA  26196.19667899 -.00000166  00000+0 -48335-3 0  9997
2 48234  87.8976 284.1180 0001881 101.0142 259.1199 13.14502289251941
ONEWEB-0203             
1 48235U 21031AB  26196.18716122 -.00000074  00000+0 -23432-3 0  9990
2 48235  87.8975 284.1226 0002089 105.5668 254.5692 13.14501673251959
ONEWEB-0197             
1 48236U 21031AC  26195.78106027  .00000181  00000+0  45388-3 0  9994
2 48236  87.8965 284.1876 0001966  92.4129 267.7226 13.14502509251812
ONEWEB-0194             
1 48237U 21031AD  26196.21728712  .00000077  00000+0  17344-3 0  9990
2 48237  87.8966 284.1240 0001938 105.6899 254.4444 13.14504212252043
ONEWEB-0193             
1 48238U 21031AE  26196.15703806  .00000211  00000+0  53361-3 0  9990
2 48238  87.8967 284.1263 0001814 110.6212 249.5112 13.14502486251988
ONEWEB-0191             
1 48239U 21031AF  26195.78753481  .00000199  00000+0  50311-3 0  9990
2 48239  87.8977 284.2005 0001904  95.3103 264.8244 13.14506466251790
ONEWEB-0195             
1 48240U 21031AG  26196.22125637  .00000137  00000+0  33554-3 0  9990
2 48240  87.8974 284.1144 0002429  99.5091 260.6313 13.14503519251839
ONEWEB-0201             
1 48241U 21031AH  26196.20949613 -.00000021  00000+0 -90319-4 0  9994
2 48241  87.8966 284.1311 0002024  91.5122 268.6239 13.14502768252061
ONEWEB-0207             
1 48242U 21031AJ  26196.18952634 -.00000201  00000+0 -57672-3 0  9993
2 48242  87.8975 284.1210 0002044  92.1632 267.9732 13.14501022251976
