OBJECT_NAME,OBJECT_ID,EPOCH,MEAN_MOTION,ECCENTRICITY,INCLINATION,RA_OF_ASC_NODE,ARG_OF_PERICENTER,MEAN_ANOMALY,EPHEMERIS_TYPE,CLASSIFICATION_TYPE,NORAD_CAT_ID,ELEMENT_SET_NO,REV_AT_EPOCH,BSTAR,MEAN_MOTION_DOT,MEAN_MOTION_DDOT
ONEWEB-0180,2021-031D,2026-07-15T03:59:50.409024,13.14502868,.0002446,87.8979,284.1241,99.0115,261.1292,0,U,48213,999,25189,.61049E-3,.239E-5,0
ONEWEB-0218,2021-031E,2026-07-15T04:31:47.769312,13.14503770,.0002833,87.8980,284.1187,110.0454,250.0981,0,U,48214,999,25205,-.36167E-3,-.121E-5,0
ONEWEB-0209,2021-031F,2026-07-15T04:15:49.480992,13.14503730,.0002235,87.8972,284.1352,96.6740,263.4644,0,U,48215,999,25205,-.45293E-4,-.4E-7,0
ONEWEB-0198,2021-031G,2026-07-14T16:55:31.841760,13.14502293,.00024798,87.8962,284.2266,101.0538,259.0870,0,U,48216,999,25210,.52741462E-3,.208E-5,0
ONEWEB-0189,2021-031H,2026-07-15T04:11:15.279360,13.14502227,.0002366,87.8971,284.1224,100.6486,259.4910,0,U,48217,999,25190,.24366E-3,.103E-5,0
ONEWEB-0196,2021-031J,2026-07-15T05:28:53.768640,13.14502501,.0002181,87.8968,284.1202,98.6294,261.5083,0,U,48218,999,25191,.55183E-3,.217E-5,0
ONEWEB-0183,2021-031K,2026-07-14T17:54:41.606496,13.14502398,.00019718,87.8966,284.2138,94.5793,265.5562,0,U,48219,999,25194,-.36128161E-3,-.121E-5,0
ONEWEB-0185,2021-031L,2026-07-15T05:30:00.681120,13.14504198,.0002205,87.8977,284.1131,89.4920,270.6462,0,U,48220,999,25193,.78115E-3,.302E-5,0
ONEWEB-0187,2021-031M,2026-07-15T05:01:16.862016,13.14503340,.0002181,87.8967,284.1309,96.7698,263.3680,0,U,48221,999,25194,-.72514E-4,-.14E-6,0
ONEWEB-0192,2021-031N,2026-07-15T04:18:06.130368,13.14503085,.0002122,87.8969,284.1268,100.9771,259.1597,0,U,48222,999,25185,.87184E-5,.16E-6,0
ONEWEB-0219,2021-031P,2026-07-14T18:40:21.070560,13.14503432,.00022019,87.8976,284.2002,94.5179,265.6202,0,U,48223,999,25200,.68184243E-3,.266E-5,0
ONEWEB-0202,2021-031Q,2026-07-15T05:10:37.884000,13.14502789,.0002654,87.8970,284.1251,107.3276,252.8145,0,U,48224,999,25204,.15019E-3,.68E-6,0
ONEWEB-0204,2021-031R,2026-07-15T04:10:06.055680,13.14501619,.0001803,87.8971,284.1280,88.2583,271.8753,0,U,48225,999,25193,.88402E-3,.341E-5,0
ONEWEB-0205,2021-031S,2026-07-15T05:24:19.376928,13.14502889,.0002301,87.8975,284.1128,95.8176,264.3216,0,U,48226,999,25195,.55249E-3,.218E-5,0
ONEWEB-0206,2021-031T,2026-07-15T04:45:29.619936,13.14502219,.0001895,87.8971,284.1182,102.0329,258.1013,0,U,48227,999,25190,-.47534E-3,-.163E-5,0
ONEWEB-0182,2021-031U,2026-07-14T17:40:58.465920,13.14504131,.0001905,87.8968,284.2166,94.3303,265.8044,0,U,48228,999,25205,-.49169075E-3,-.169E-5,0
ONEWEB-0186,2021-031V,2026-07-15T04:54:37.836576,13.14503374,.0002128,87.8976,284.1169,97.7144,262.4227,0,U,48229,999,25206,-.31535E-3,-.104E-5,0
ONEWEB-0181,2021-031W,2026-07-15T04:22:38.649792,13.14501717,.0002218,87.8964,284.1456,98.9560,261.1820,0,U,48230,999,25191,-.16316E-3,-.48E-6,0
ONEWEB-0188,2021-031X,2026-07-15T05:17:28.049856,13.14502254,.0002063,87.8960,284.1377,97.9552,262.1812,0,U,48231,999,25182,.27918E-3,.116E-5,0
ONEWEB-0220,2021-031Y,2026-07-15T04:24:57.394368,13.14494088,.0002214,87.8977,284.1220,92.7800,267.3583,0,U,48232,999,25208,-.20654E-3,-.64E-6,0
ONEWEB-0165,2021-031Z,2026-07-15T05:06:03.264192,13.14504055,.0002442,87.8967,284.1275,102.0247,258.1157,0,U,48233,999,25204,-.70574E-5,.1E-6,0
ONEWEB-0199,2021-031AA,2026-07-15T04:43:13.064736,13.14502289,.0001881,87.8976,284.1180,101.0142,259.1199,0,U,48234,999,25194,-.48335E-3,-.166E-5,0
ONEWEB-0203,2021-031AB,2026-07-15T04:29:30.729408,13.14501673,.0002089,87.8975,284.1226,105.5668,254.5692,0,U,48235,999,25195,-.23432E-3,-.74E-6,0
ONEWEB-0197,2021-031AC,2026-07-14T18:44:43.607328,13.14502509,.00019669,87.8965,284.1876,92.4129,267.7226,0,U,48236,999,25181,.45388459E-3,.181E-5,0
ONEWEB-0194,2021-031AD,2026-07-15T05:12:53.607168,13.14504212,.0001938,87.8966,284.1240,105.6899,254.4444,0,U,48237,999,25204,.17344E-3,.77E-6,0
ONEWEB-0193,2021-031AE,2026-07-15T03:46:08.088384,13.14502486,.0001814,87.8967,284.1263,110.6212,249.5112,0,U,48238,999,25198,.53361E-3,.211E-5,0
ONEWEB-0191,2021-031AF,2026-07-14T18:54:03.007584,13.14506466,.00019044,87.8977,284.2005,95.3103,264.8244,0,U,48239,999,25179,.50310735E-3,.199E-5,0
ONEWEB-0195,2021-031AG,2026-07-15T05:18:36.550368,13.14503519,.0002429,87.8974,284.1144,99.5091,260.6313,0,U,48240,999,25183,.33554E-3,.137E-5,0
ONEWEB-0201,2021-031AH,2026-07-15T05:01:40.465632,13.14502768,.0002024,87.8966,284.1311,91.5122,268.6239,0,U,48241,999,25206,-.90319E-4,-.21E-6,0
ONEWEB-0207,2021-031AJ,2026-07-15T04:32:55.075776,13.14501022,.0002044,87.8975,284.1210,92.1632,267.9732,0,U,48242,999,25197,-.57672E-3,-.201E-5,0
